{
  "type": "FeatureCollection",
  "features": [
    {
      "type": "Feature",
      "properties": {
        "id": "admin-001",
        "name": "滨江西区",
        "code": "420101"
      },
      "geometry": {
        "type": "Polygon",
        "coordinates": [
          [
            [
              114.3027,
              30.5227
            ],
            [
              114.3093,
              30.5229
            ],
            [
              114.3095,
              30.5285
            ],
            [
              114.3092,
              30.534
            ],
            [
              114.3097,
              30.5402
            ],
            [
              114.3028,
              30.5398
            ],
            [
              114.3027,
              30.5227
            ]
          ]
        ]
      }
    },
    {
      "type": "Feature",
      "properties": {
        "id": "admin-002",
        "name": "滨江中区",
        "code": "420102"
      },
      "geometry": {
        "type": "Polygon",
        "coordinates": [
          [
            [
              114.3093,
              30.5229
            ],
            [
              114.3147,
              30.5226
            ],
            [
              114.3145,
              30.5286
            ],
            [
              114.3148,
              30.534
            ],
            [
              114.3144,
              30.5401
            ],
            [
              114.3097,
              30.5402
            ],
            [
              114.3092,
              30.534
            ],
            [
              114.3095,
              30.5285
            ],
            [
              114.3093,
              30.5229
            ]
          ]
        ]
      }
    },
    {
      "type": "Feature",
      "properties": {
        "id": "admin-003",
        "name": "滨江东区",
        "code": "420103"
      },
      "geometry": {
        "type": "Polygon",
        "coordinates": [
          [
            [
              114.3147,
              30.5226
            ],
            [
              114.3218,
              30.5231
            ],
            [
              114.3214,
              30.54
            ],
            [
              114.3144,
              30.5401
            ],
            [
              114.3148,
              30.534
            ],
            [
              114.3145,
              30.5286
            ],
            [
              114.3147,
              30.5226
            ]
          ]
        ]
      }
    }
  ]
}
