{
  "type": "FeatureCollection",
  "features": [
    {
      "type": "Feature",
      "properties": {
        "id": "parcel-001",
        "landUseType": "residential",
        "areaM2": 44284.83,
        "districtCode": "420101",
        "builtYear": null
      },
      "geometry": {
        "type": "Polygon",
        "coordinates": [
          [
            [
              114.30550000000001,
              30.52611
            ],
            [
              114.3076,
              30.52611
            ],
            [
              114.3074,
              30.52809
            ],
            [
              114.3053,
              30.52809
            ],
            [
              114.30550000000001,
              30.52611
            ]
          ]
        ]
      }
    },
    {
      "type": "Feature",
      "properties": {
        "id": "parcel-002",
        "landUseType": "commercial",
        "areaM2": 43168.65,
        "districtCode": "420101",
        "builtYear": 2005
      },
      "geometry": {
        "type": "Polygon",
        "coordinates": [
          [
            [
              114.30781499999999,
              30.52613
            ],
            [
              114.30988500000001,
              30.52611
            ],
            [
              114.309685,
              30.52807
            ],
            [
              114.307615,
              30.52809
            ],
            [
              114.30781499999999,
              30.52613
            ]
          ]
        ]
      }
    },
    {
      "type": "Feature",
      "properties": {
        "id": "parcel-003",
        "landUseType": "industrial",
        "areaM2": 47237.15,
        "districtCode": "420102",
        "builtYear": 2006
      },
      "geometry": {
        "type": "Polygon",
        "coordinates": [
          [
            [
              114.31013,
              30.52611
            ],
            [
              114.31237,
              30.52611
            ],
            [
              114.31217,
              30.52809
            ],
            [
              114.30993,
              30.52809
            ],
            [
              114.31013,
              30.52611
            ]
          ]
        ]
      }
    },
    {
      "type": "Feature",
      "properties": {
        "id": "parcel-004",
        "landUseType": "green",
        "areaM2": 52144.9,
        "districtCode": "420102",
        "builtYear": 2007
      },
      "geometry": {
        "type": "Polygon",
        "coordinates": [
          [
            [
              114.3126,
              30.52613
            ],
            [
              114.3151,
              30.52611
            ],
            [
              114.3149,
              30.52807
            ],
            [
              114.3124,
              30.52809
            ],
            [
              114.3126,
              30.52613
            ]
          ]
        ]
      }
    },
    {
      "type": "Feature",
      "properties": {
        "id": "parcel-005",
        "landUseType": "public",
        "areaM2": 55250.59,
        "districtCode": "420103",
        "builtYear": 2008
      },
      "geometry": {
        "type": "Polygon",
        "coordinates": [
          [
            [
              114.315315,
              30.52611
            ],
            [
              114.317885,
              30.52611
            ],
            [
              114.317785,
              30.52809
            ],
            [
              114.31511499999999,
              30.52809
            ],
            [
              114.315315,
              30.52611
            ]
          ]
        ]
      }
    },
    {
      "type": "Feature",
      "properties": {
        "id": "parcel-006",
        "landUseType": "transportation",
        "areaM2": 51758.11,
        "districtCode": "420101",
        "builtYear": 2009
      },
      "geometry": {
        "type": "Polygon",
        "coordinates": [
          [
            [
              114.30533,
              30.528309999999998
            ],
            [
              114.30737,
              30.528309999999998
            ],
            [
              114.30767,
              30.53057
            ],
            [
              114.30543,
              30.53059
            ],
            [
              114.30533,
              30.528309999999998
            ]
          ]
        ]
      }
    },
    {
      "type": "Feature",
      "properties": {
        "id": "parcel-007",
        "landUseType": "other",
        "areaM2": 48373.45,
        "districtCode": "420101",
        "builtYear": null
      },
      "geometry": {
        "type": "Polygon",
        "coordinates": [
          [
            [
              114.30760000000001,
              30.528329999999997
            ],
            [
              114.30969999999999,
              30.528309999999998
            ],
            [
              114.3098,
              30.53059
            ],
            [
              114.3079,
              30.53059
            ],
            [
              114.30760000000001,
              30.528329999999997
            ]
          ]
        ]
      }
    },
    {
      "type": "Feature",
      "properties": {
        "id": "parcel-008",
        "landUseType": "residential",
        "areaM2": 54890.35,
        "districtCode": "420102",
        "builtYear": 2011
      },
      "geometry": {
        "type": "Polygon",
        "coordinates": [
          [
            [
              114.30991499999999,
              30.528309999999998
            ],
            [
              114.312185,
              30.528309999999998
            ],
            [
              114.312285,
              30.53057
            ],
            [
              114.31001499999999,
              30.53059
            ],
            [
              114.30991499999999,
              30.528309999999998
            ]
          ]
        ]
      }
    },
    {
      "type": "Feature",
      "properties": {
        "id": "parcel-009",
        "landUseType": "commercial",
        "areaM2": 57786.15,
        "districtCode": "420102",
        "builtYear": 2012
      },
      "geometry": {
        "type": "Polygon",
        "coordinates": [
          [
            [
              114.31242999999999,
              30.528329999999997
            ],
            [
              114.31487,
              30.528309999999998
            ],
            [
              114.31487,
              30.53059
            ],
            [
              114.31253,
              30.53059
            ],
            [
              114.31242999999999,
              30.528329999999997
            ]
          ]
        ]
      }
    },
    {
      "type": "Feature",
      "properties": {
        "id": "parcel-010",
        "landUseType": "industrial",
        "areaM2": 64061.28,
        "districtCode": "420103",
        "builtYear": 2013
      },
      "geometry": {
        "type": "Polygon",
        "coordinates": [
          [
            [
              114.3151,
              30.528309999999998
            ],
            [
              114.31779999999999,
              30.528309999999998
            ],
            [
              114.3177,
              30.53057
            ],
            [
              114.3151,
              30.53059
            ],
            [
              114.3151,
              30.528309999999998
            ]
          ]
        ]
      }
    },
    {
      "type": "Feature",
      "properties": {
        "id": "parcel-011",
        "landUseType": "green",
        "areaM2": 50285,
        "districtCode": "420101",
        "builtYear": 2014
      },
      "geometry": {
        "type": "Polygon",
        "coordinates": [
          [
            [
              114.305415,
              30.53081
            ],
            [
              114.307685,
              30.53081
            ],
            [
              114.30738500000001,
              30.532890000000002
            ],
            [
              114.305115,
              30.532890000000002
            ],
            [
              114.305415,
              30.53081
            ]
          ]
        ]
      }
    },
    {
      "type": "Feature",
      "properties": {
        "id": "parcel-012",
        "landUseType": "public",
        "areaM2": 45841.82,
        "districtCode": "420101",
        "builtYear": 2015
      },
      "geometry": {
        "type": "Polygon",
        "coordinates": [
          [
            [
              114.30793,
              30.530829999999998
            ],
            [
              114.30977,
              30.53081
            ],
            [
              114.30997,
              30.532870000000003
            ],
            [
              114.30763,
              30.532890000000002
            ],
            [
              114.30793,
              30.530829999999998
            ]
          ]
        ]
      }
    },
    {
      "type": "Feature",
      "properties": {
        "id": "parcel-target-001",
        "landUseType": "commercial",
        "areaM2": 53164.75,
        "districtCode": "420102",
        "builtYear": 2012
      },
      "geometry": {
        "type": "Polygon",
        "coordinates": [
          [
            [
              114.31,
              30.53081
            ],
            [
              114.3123,
              30.53081
            ],
            [
              114.31269999999999,
              30.532890000000002
            ],
            [
              114.31020000000001,
              30.532890000000002
            ],
            [
              114.31,
              30.53081
            ]
          ]
        ]
      }
    },
    {
      "type": "Feature",
      "properties": {
        "id": "parcel-014",
        "landUseType": "other",
        "areaM2": 49865.39,
        "districtCode": "420102",
        "builtYear": 2017
      },
      "geometry": {
        "type": "Polygon",
        "coordinates": [
          [
            [
              114.31251499999999,
              30.530829999999998
            ],
            [
              114.314885,
              30.53081
            ],
            [
              114.31508500000001,
              30.532870000000003
            ],
            [
              114.31291499999999,
              30.532890000000002
            ],
            [
              114.31251499999999,
              30.530829999999998
            ]
          ]
        ]
      }
    },
    {
      "type": "Feature",
      "properties": {
        "id": "parcel-015",
        "landUseType": "residential",
        "areaM2": 56266.03,
        "districtCode": "420103",
        "builtYear": 2018
      },
      "geometry": {
        "type": "Polygon",
        "coordinates": [
          [
            [
              114.31513,
              30.53081
            ],
            [
              114.31767,
              30.53081
            ],
            [
              114.31787,
              30.532890000000002
            ],
            [
              114.31533,
              30.532890000000002
            ],
            [
              114.31513,
              30.53081
            ]
          ]
        ]
      }
    },
    {
      "type": "Feature",
      "properties": {
        "id": "parcel-016",
        "landUseType": "commercial",
        "areaM2": 56837.6,
        "districtCode": "420101",
        "builtYear": 2019
      },
      "geometry": {
        "type": "Polygon",
        "coordinates": [
          [
            [
              114.30510000000001,
              30.53311
            ],
            [
              114.3074,
              30.53311
            ],
            [
              114.3077,
              30.53537
            ],
            [
              114.3053,
              30.53539
            ],
            [
              114.30510000000001,
              30.53311
            ]
          ]
        ]
      }
    },
    {
      "type": "Feature",
      "properties": {
        "id": "parcel-017",
        "landUseType": "industrial",
        "areaM2": 56112.35,
        "districtCode": "420101",
        "builtYear": 2020
      },
      "geometry": {
        "type": "Polygon",
        "coordinates": [
          [
            [
              114.307615,
              30.53313
            ],
            [
              114.30998500000001,
              30.53311
            ],
            [
              114.310185,
              30.53539
            ],
            [
              114.307915,
              30.53539
            ],
            [
              114.307615,
              30.53313
            ]
          ]
        ]
      }
    },
    {
      "type": "Feature",
      "properties": {
        "id": "parcel-018",
        "landUseType": "green",
        "areaM2": 57793.95,
        "districtCode": "420102",
        "builtYear": 2021
      },
      "geometry": {
        "type": "Polygon",
        "coordinates": [
          [
            [
              114.31023,
              30.53311
            ],
            [
              114.31267,
              30.53311
            ],
            [
              114.31277,
              30.53537
            ],
            [
              114.31043,
              30.53539
            ],
            [
              114.31023,
              30.53311
            ]
          ]
        ]
      }
    },
    {
      "type": "Feature",
      "properties": {
        "id": "parcel-019",
        "landUseType": "public",
        "areaM2": 55623.53,
        "districtCode": "420102",
        "builtYear": null
      },
      "geometry": {
        "type": "Polygon",
        "coordinates": [
          [
            [
              114.3129,
              30.53313
            ],
            [
              114.3151,
              30.53311
            ],
            [
              114.3154,
              30.53539
            ],
            [
              114.313,
              30.53539
            ],
            [
              114.3129,
              30.53313
            ]
          ]
        ]
      }
    },
    {
      "type": "Feature",
      "properties": {
        "id": "parcel-020",
        "landUseType": "transportation",
        "areaM2": 60947.33,
        "districtCode": "420103",
        "builtYear": 2023
      },
      "geometry": {
        "type": "Polygon",
        "coordinates": [
          [
            [
              114.315315,
              30.53311
            ],
            [
              114.317885,
              30.53311
            ],
            [
              114.31808500000001,
              30.53537
            ],
            [
              114.315615,
              30.53539
            ],
            [
              114.315315,
              30.53311
            ]
          ]
        ]
      }
    }
  ]
}
