{
  "type": "FeatureCollection",
  "features": [
    {
      "type": "Feature",
      "properties": {
        "id": "road-001",
        "name": "滨江大道",
        "roadClass": "主干路"
      },
      "geometry": {
        "type": "LineString",
        "coordinates": [
          [
            114.3046,
            30.5304
          ],
          [
            114.3081,
            30.5303
          ],
          [
            114.3114,
            30.5305
          ],
          [
            114.315,
            30.5302
          ],
          [
            114.3191,
            30.5304
          ]
        ]
      }
    },
    {
      "type": "Feature",
      "properties": {
        "id": "road-002",
        "name": "临江路",
        "roadClass": "次干路"
      },
      "geometry": {
        "type": "LineString",
        "coordinates": [
          [
            114.3049,
            30.5331
          ],
          [
            114.3085,
            30.5333
          ],
          [
            114.312,
            30.533
          ],
          [
            114.3154,
            30.5333
          ],
          [
            114.3188,
            30.5331
          ]
        ]
      }
    },
    {
      "type": "Feature",
      "properties": {
        "id": "road-003",
        "name": "青石路",
        "roadClass": "次干路"
      },
      "geometry": {
        "type": "LineString",
        "coordinates": [
          [
            114.3092,
            30.5251
          ],
          [
            114.3094,
            30.5284
          ],
          [
            114.3093,
            30.5316
          ],
          [
            114.3096,
            30.535
          ],
          [
            114.3094,
            30.5382
          ]
        ]
      }
    },
    {
      "type": "Feature",
      "properties": {
        "id": "road-004",
        "name": "规划一路",
        "roadClass": "支路"
      },
      "geometry": {
        "type": "LineString",
        "coordinates": [
          [
            114.3132,
            30.525
          ],
          [
            114.313,
            30.5286
          ],
          [
            114.3133,
            30.532
          ],
          [
            114.3131,
            30.5353
          ],
          [
            114.3134,
            30.538
          ]
        ]
      }
    },
    {
      "type": "Feature",
      "properties": {
        "id": "road-005",
        "name": "创新大道",
        "roadClass": "主干路"
      },
      "geometry": {
        "type": "LineString",
        "coordinates": [
          [
            114.3061,
            30.5262
          ],
          [
            114.3087,
            30.5288
          ],
          [
            114.311,
            30.5311
          ],
          [
            114.3141,
            30.5338
          ],
          [
            114.317,
            30.5358
          ]
        ]
      }
    },
    {
      "type": "Feature",
      "properties": {
        "id": "road-006",
        "name": "北湖街",
        "roadClass": "支路"
      },
      "geometry": {
        "type": "LineString",
        "coordinates": [
          [
            114.3057,
            30.5358
          ],
          [
            114.309,
            30.5355
          ],
          [
            114.3122,
            30.5358
          ],
          [
            114.3168,
            30.5356
          ]
        ]
      }
    },
    {
      "type": "Feature",
      "properties": {
        "id": "road-007",
        "name": "望江支路",
        "roadClass": "支路"
      },
      "geometry": {
        "type": "LineString",
        "coordinates": [
          [
            114.3103,
            30.5291
          ],
          [
            114.3108,
            30.5307
          ],
          [
            114.3111,
            30.532
          ],
          [
            114.3121,
            30.5334
          ]
        ]
      }
    },
    {
      "type": "Feature",
      "properties": {
        "id": "road-008",
        "name": "北环路",
        "roadClass": "主干路"
      },
      "geometry": {
        "type": "LineString",
        "coordinates": [
          [
            114.3045,
            30.538
          ],
          [
            114.309,
            30.5378
          ],
          [
            114.314,
            30.5381
          ],
          [
            114.3195,
            30.5377
          ]
        ]
      }
    },
    {
      "type": "Feature",
      "properties": {
        "id": "road-009",
        "name": "东环路",
        "roadClass": "主干路"
      },
      "geometry": {
        "type": "LineString",
        "coordinates": [
          [
            114.3194,
            30.5247
          ],
          [
            114.3192,
            30.529
          ],
          [
            114.3196,
            30.5333
          ],
          [
            114.3193,
            30.5388
          ]
        ]
      }
    },
    {
      "type": "Feature",
      "properties": {
        "id": "road-010",
        "name": "南港路",
        "roadClass": "次干路"
      },
      "geometry": {
        "type": "LineString",
        "coordinates": [
          [
            114.3043,
            30.5236
          ],
          [
            114.309,
            30.5239
          ],
          [
            114.314,
            30.5236
          ],
          [
            114.3191,
            30.5239
          ]
        ]
      }
    },
    {
      "type": "Feature",
      "properties": {
        "id": "road-011",
        "name": "西堤路",
        "roadClass": "次干路"
      },
      "geometry": {
        "type": "LineString",
        "coordinates": [
          [
            114.303,
            30.5245
          ],
          [
            114.3034,
            30.529
          ],
          [
            114.3031,
            30.5338
          ],
          [
            114.3035,
            30.5385
          ]
        ]
      }
    },
    {
      "type": "Feature",
      "properties": {
        "id": "road-012",
        "name": "科创北路",
        "roadClass": "支路"
      },
      "geometry": {
        "type": "LineString",
        "coordinates": [
          [
            114.3165,
            30.5357
          ],
          [
            114.3182,
            30.5366
          ],
          [
            114.3197,
            30.538
          ],
          [
            114.3216,
            30.5393
          ]
        ]
      }
    }
  ]
}
